[{"OBJECT_NAME":"YAOGAN-33 03","OBJECT_ID":"2023-136A","EPOCH":"2026-03-09T22:27:40.864032","MEAN_MOTION":14.58624838,"ECCENTRICITY":0.00086253,"INCLINATION":98.1935,"RA_OF_ASC_NODE":354.6145,"ARG_OF_PERICENTER":129.4155,"MEAN_ANOMALY":230.7809,"EPHEMERIS_TYPE":0,"CLASSIFICATION_TYPE":"U","NORAD_CAT_ID":57797,"ELEMENT_SET_NO":999,"REV_AT_EPOCH":13346,"BSTAR":0.0001651829,"MEAN_MOTION_DOT":7.23e-6,"MEAN_MOTION_DDOT":0},{"OBJECT_NAME":"FENGYUN 1C DEB","OBJECT_ID":"1999-025DSA","EPOCH":"2026-03-08T05:44:29.395968","MEAN_MOTION":14.51309884,"ECCENTRICITY":0.00331986,"INCLINATION":98.5852,"RA_OF_ASC_NODE":164.1544,"ARG_OF_PERICENTER":150.1051,"MEAN_ANOMALY":210.2048,"EPHEMERIS_TYPE":0,"CLASSIFICATION_TYPE":"U","NORAD_CAT_ID":36153,"ELEMENT_SET_NO":999,"REV_AT_EPOCH":66203,"BSTAR":0.0030309454,"MEAN_MOTION_DOT":0.00012125,"MEAN_MOTION_DDOT":0}]
